{
  "type": "FeatureCollection",
  "features": [
    {
      "type": "Feature",
      "properties": {
        "norad_id": 35789,
        "name": "COSMOS 2251 DEB",
        "group": "cosmos-2251-debris",
        "lat": -45.6455638344948,
        "lon": 128.59766999444986,
        "alt_km": 810.6775167828137,
        "timestamp": "2025-12-08T19:31:49.203735+00:00",
        "meta_object_name": "COSMOS 2251 DEB",
        "meta_object_id": "1993-036ASK",
        "meta_epoch": "2025-12-07T20:44:12.221376",
        "meta_mean_motion": 14.35979248,
        "meta_eccentricity": 0.00472292,
        "meta_inclination": 74.0391,
        "meta_ra_of_asc_node": 293.3196,
        "meta_arg_of_pericenter": 34.0926,
        "meta_mean_anomaly": 326.3244,
        "meta_ephemeris_type": 0,
        "meta_classification_type": "U",
        "meta_norad_cat_id": 35789,
        "meta_element_set_no": 999,
        "meta_rev_at_epoch": 61157,
        "meta_bstar": 0.00024477,
        "meta_mean_motion_dot": 6.94e-06,
        "meta_mean_motion_ddot": 0,
        "tle_line1": "1 35789U 93036ASK 25341.86403034  .00000694  00000+0  24477-3 0  9991",
        "tle_line2": "2 35789  74.0391 293.3196 0047229  34.0926 326.3244 14.35979248611575"
      },
      "geometry": {
        "type": "Point",
        "coordinates": [
          128.59766999444986,
          -45.6455638344948
        ]
      }
    },
    {
      "type": "Feature",
      "properties": {
        "norad_id": 35793,
        "name": "COSMOS 2251 DEB",
        "group": "cosmos-2251-debris",
        "lat": 37.09596308999471,
        "lon": 80.39617802104547,
        "alt_km": 631.3110562815036,
        "timestamp": "2025-12-08T19:31:49.203744+00:00",
        "meta_object_name": "COSMOS 2251 DEB",
        "meta_object_id": "1993-036ASP",
        "meta_epoch": "2025-12-07T22:47:04.053408",
        "meta_mean_motion": 14.78488646,
        "meta_eccentricity": 0.00029281,
        "meta_inclination": 74.0407,
        "meta_ra_of_asc_node": 69.5961,
        "meta_arg_of_pericenter": 139.1114,
        "meta_mean_anomaly": 340.8609,
        "meta_ephemeris_type": 0,
        "meta_classification_type": "U",
        "meta_norad_cat_id": 35793,
        "meta_element_set_no": 999,
        "meta_rev_at_epoch": 65726,
        "meta_bstar": 0.0023244582,
        "meta_mean_motion_dot": 0.0001698,
        "meta_mean_motion_ddot": 0,
        "tle_line1": "1 35793U 93036ASP 25341.94935247  .00016980  00000+0  23245-2 0  9997",
        "tle_line2": "2 35793  74.0407  69.5961 0002928 139.1114 340.8609 14.78488646657260"
      },
      "geometry": {
        "type": "Point",
        "coordinates": [
          80.39617802104547,
          37.09596308999471
        ]
      }
    },
    {
      "type": "Feature",
      "properties": {
        "norad_id": 35824,
        "name": "COSMOS 2251 DEB",
        "group": "cosmos-2251-debris",
        "lat": -68.30064084895014,
        "lon": -77.71214420122973,
        "alt_km": 1008.2961364885368,
        "timestamp": "2025-12-08T19:31:49.203754+00:00",
        "meta_object_name": "COSMOS 2251 DEB",
        "meta_object_id": "1993-036ASW",
        "meta_epoch": "2025-12-07T11:11:54.434400",
        "meta_mean_motion": 13.88389975,
        "meta_eccentricity": 0.02495716,
        "meta_inclination": 73.846,
        "meta_ra_of_asc_node": 57.8543,
        "meta_arg_of_pericenter": 144.9368,
        "meta_mean_anomaly": 216.848,
        "meta_ephemeris_type": 0,
        "meta_classification_type": "U",
        "meta_norad_cat_id": 35824,
        "meta_element_set_no": 999,
        "meta_rev_at_epoch": 84154,
        "meta_bstar": 0.0021969874,
        "meta_mean_motion_dot": 3.354e-05,
        "meta_mean_motion_ddot": 0,
        "tle_line1": "1 35824U 93036ASW 25341.46660225  .00003354  00000+0  21970-2 0  9994",
        "tle_line2": "2 35824  73.8460  57.8543 0249571 144.9368 216.8480 13.88389975841549"
      },
      "geometry": {
        "type": "Point",
        "coordinates": [
          -77.71214420122973,
          -68.30064084895014
        ]
      }
    },
    {
      "type": "Feature",
      "properties": {
        "norad_id": 35825,
        "name": "COSMOS 2251 DEB",
        "group": "cosmos-2251-debris",
        "lat": 28.54634993557944,
        "lon": -39.82045517274164,
        "alt_km": 1010.9949622685717,
        "timestamp": "2025-12-08T19:31:49.203763+00:00",
        "meta_object_name": "COSMOS 2251 DEB",
        "meta_object_id": "1993-036ASX",
        "meta_epoch": "2025-12-06T17:43:31.257408",
        "meta_mean_motion": 13.70908059,
        "meta_eccentricity": 0.03529553,
        "meta_inclination": 74.1125,
        "meta_ra_of_asc_node": 152.5025,
        "meta_arg_of_pericenter": 249.6557,
        "meta_mean_anomaly": 106.6316,
        "meta_ephemeris_type": 0,
        "meta_classification_type": "U",
        "meta_norad_cat_id": 35825,
        "meta_element_set_no": 999,
        "meta_rev_at_epoch": 82426,
        "meta_bstar": 0.0026115912,
        "meta_mean_motion_dot": 3.599e-05,
        "meta_mean_motion_ddot": 0,
        "tle_line1": "1 35825U 93036ASX 25340.73855622  .00003599  00000+0  26116-2 0  9999",
        "tle_line2": "2 35825  74.1125 152.5025 0352955 249.6557 106.6316 13.70908059824269"
      },
      "geometry": {
        "type": "Point",
        "coordinates": [
          -39.82045517274164,
          28.54634993557944
        ]
      }
    },
    {
      "type": "Feature",
      "properties": {
        "norad_id": 35829,
        "name": "COSMOS 2251 DEB",
        "group": "cosmos-2251-debris",
        "lat": -8.442813922368593,
        "lon": 104.06460351402062,
        "alt_km": 650.1363168375883,
        "timestamp": "2025-12-08T19:31:49.203772+00:00",
        "meta_object_name": "COSMOS 2251 DEB",
        "meta_object_id": "1993-036ATB",
        "meta_epoch": "2025-12-06T15:31:06.082752",
        "meta_mean_motion": 14.76019114,
        "meta_eccentricity": 0.00069566,
        "meta_inclination": 74.0253,
        "meta_ra_of_asc_node": 110.7447,
        "meta_arg_of_pericenter": 170.1398,
        "meta_mean_anomaly": 189.9914,
        "meta_ephemeris_type": 0,
        "meta_classification_type": "U",
        "meta_norad_cat_id": 35829,
        "meta_element_set_no": 999,
        "meta_rev_at_epoch": 87685,
        "meta_bstar": 0.003503633,
        "meta_mean_motion_dot": 0.00024203,
        "meta_mean_motion_ddot": 0,
        "tle_line1": "1 35829U 93036ATB 25340.64659818  .00024203  00000+0  35036-2 0  9998",
        "tle_line2": "2 35829  74.0253 110.7447 0006956 170.1398 189.9914 14.76019114876858"
      },
      "geometry": {
        "type": "Point",
        "coordinates": [
          104.06460351402062,
          -8.442813922368593
        ]
      }
    },
    {
      "type": "Feature",
      "properties": {
        "norad_id": 35830,
        "name": "COSMOS 2251 DEB",
        "group": "cosmos-2251-debris",
        "lat": -45.04535675426378,
        "lon": -103.27700957565119,
        "alt_km": 787.3458980772002,
        "timestamp": "2025-12-08T19:31:49.203781+00:00",
        "meta_object_name": "COSMOS 2251 DEB",
        "meta_object_id": "1993-036ATC",
        "meta_epoch": "2025-12-06T12:06:38.215008",
        "meta_mean_motion": 14.23927917,
        "meta_eccentricity": 0.01224789,
        "meta_inclination": 73.8624,
        "meta_ra_of_asc_node": 277.7805,
        "meta_arg_of_pericenter": 247.2482,
        "meta_mean_anomaly": 111.5683,
        "meta_ephemeris_type": 0,
        "meta_classification_type": "U",
        "meta_norad_cat_id": 35830,
        "meta_element_set_no": 999,
        "meta_rev_at_epoch": 61175,
        "meta_bstar": 0.0019622096,
        "meta_mean_motion_dot": 4.837e-05,
        "meta_mean_motion_ddot": 0,
        "tle_line1": "1 35830U 93036ATC 25340.50460897  .00004837  00000+0  19622-2 0  9996",
        "tle_line2": "2 35830  73.8624 277.7805 0122478 247.2482 111.5683 14.23927917611750"
      },
      "geometry": {
        "type": "Point",
        "coordinates": [
          -103.27700957565119,
          -45.04535675426378
        ]
      }
    },
    {
      "type": "Feature",
      "properties": {
        "norad_id": 35834,
        "name": "COSMOS 2251 DEB",
        "group": "cosmos-2251-debris",
        "lat": -52.17411383267943,
        "lon": -70.2647507864063,
        "alt_km": 932.9221029290857,
        "timestamp": "2025-12-08T19:31:49.203790+00:00",
        "meta_object_name": "COSMOS 2251 DEB",
        "meta_object_id": "1993-036ATG",
        "meta_epoch": "2025-12-07T21:51:03.324096",
        "meta_mean_motion": 14.12971777,
        "meta_eccentricity": 0.01091665,
        "meta_inclination": 73.9307,
        "meta_ra_of_asc_node": 313.1347,
        "meta_arg_of_pericenter": 114.4592,
        "meta_mean_anomaly": 277.5198,
        "meta_ephemeris_type": 0,
        "meta_classification_type": "U",
        "meta_norad_cat_id": 35834,
        "meta_element_set_no": 999,
        "meta_rev_at_epoch": 66195,
        "meta_bstar": 0.00031410391,
        "meta_mean_motion_dot": 5.95e-06,
        "meta_mean_motion_ddot": 0,
        "tle_line1": "1 35834U 93036ATG 25341.91045514  .00000595  00000+0  31410-3 0  9998",
        "tle_line2": "2 35834  73.9307 313.1347 0109166 114.4592 277.5198 14.12971777661957"
      },
      "geometry": {
        "type": "Point",
        "coordinates": [
          -70.2647507864063,
          -52.17411383267943
        ]
      }
    }
  ]
}